[{"OBJECT_NAME":"ONEWEB-0212","OBJECT_ID":"2021-045AA","EPOCH":"2026-03-09T15:37:14.379168","MEAN_MOTION":13.1554815,"ECCENTRICITY":0.0001634,"INCLINATION":87.8947,"RA_OF_ASC_NODE":279.056,"ARG_OF_PERICENTER":87.7955,"MEAN_ANOMALY":272.3363,"EPHEMERIS_TYPE":0,"CLASSIFICATION_TYPE":"U","NORAD_CAT_ID":48791,"ELEMENT_SET_NO":999,"REV_AT_EPOCH":23134,"BSTAR":0.00041604,"MEAN_MOTION_DOT":1.69e-6,"MEAN_MOTION_DDOT":0},{"OBJECT_NAME":"UNKNOWN","OBJECT_ID":"","EPOCH":"2026-03-09T10:30:41.440032","MEAN_MOTION":14.01503823,"ECCENTRICITY":0.0581998,"INCLINATION":65.7904,"RA_OF_ASC_NODE":128.3867,"ARG_OF_PERICENTER":3.0119,"MEAN_ANOMALY":357.4216,"EPHEMERIS_TYPE":0,"CLASSIFICATION_TYPE":"U","NORAD_CAT_ID":87690,"ELEMENT_SET_NO":999,"REV_AT_EPOCH":61952,"BSTAR":0.00073444,"MEAN_MOTION_DOT":5.044e-5,"MEAN_MOTION_DDOT":0}]
